*******************************************************************************
Ephemeris / WWW_USER Mon Mar 24 07:23:58 2025 Pasadena, USA      / Horizons    
*******************************************************************************
Target body name: (2018 PN20)                     {source: JPL#3}
Center body name: Earth (399)                     {source: DE441}
Center-site name: Mauna Kea
*******************************************************************************
Start time      : A.D. 2018-Dec-31 04:03:00.0000 UT      
Stop  time      : A.D. 2018-Dec-31 16:46:00.0000 UT      
Step-size       : 1 minutes
*******************************************************************************
Target pole/equ : undefined
Target radii    : undefined                                                    
Center geodetic : 204.5278, 19.8260847, 4.21024   {E-lon(deg),Lat(deg),Alt(km)}
Center cylindric: 204.5278, 6006.35451, 2151.0229 {E-lon(deg),Dxy(km),Dz(km)}
Center pole/equ : ITRF93                          {East-longitude positive}
Center radii    : 6378.137, 6378.137, 6356.752 km {Equator_a, b, pole_c}       
Target primary  : Sun
Vis. interferer : MOON (R_eq= 1737.400) km        {source: DE441}
Rel. light bend : Sun                             {source: DE441}
Rel. lght bnd GM: 1.3271E+11 km^3/s^2                                          
Small-body perts: Yes                             {source: SB441-N16}
Atmos refraction: NO (AIRLESS)
RA format       : HMS
Time format     : CAL 
Calendar mode   : Mixed Julian/Gregorian
RTS-only print  : NO       
EOP file        : eop.250321.p250617                                           
EOP coverage    : DATA-BASED 1962-JAN-20 TO 2025-MAR-21. PREDICTS-> 2025-JUN-16
Units conversion: 1 au= 149597870.700 km, c= 299792.458 km/s, 1 day= 86400.0 s 
Table cut-offs 1: Elevation (-90.0deg=NO ),Airmass (>38.000=NO), Daylight (YES)
Table cut-offs 2: Solar elongation (  0.0,180.0=NO ),Local Hour Angle( 0.0=NO )
Table cut-offs 3: RA/DEC angular rate (     0.0=NO )                           
*******************************************************************************
Initial IAU76/J2000 heliocentric ecliptic osculating elements (au, days, deg.):
  EPOCH=  2458343.5 ! 2018-Aug-13.00 (TDB)         Residual RMS= .1225         
   EC= .3775096637251725   QR= 1.051585063958075   TP= 2458346.3972912203      
   OM= 142.6884316149991   W=  180.4368328240348   IN= 18.91630320954361       
  Equivalent ICRF heliocentric cartesian coordinates (au, au/d):
   X= 8.077039416640637E-01  Y=-6.245728834467501E-01  Z=-2.534674905132982E-01
  VX= 1.177737749455786E-02 VY= 1.576958466977457E-02 VZ=-1.142216194306418E-04
Asteroid physical parameters (km, seconds, rotational period in hours):        
   GM= n.a.                RAD= n.a.               ROTPER= n.a.                
   H= 25.1                 G= .150                 B-V= n.a.                   
                           ALBEDO= n.a.            STYP= n.a.                  
*******************************************************************************
 Date__(UT)__HR:MN     R.A._________(ICRF)_________DEC
******************************************************
$$SOE
 2018-Dec-31 16:21 Nm  02 49 38.061162 -16 13 36.06850
 2018-Dec-31 16:22 Nm  02 49 38.101008 -16 13 34.89843
 2018-Dec-31 16:23 Nm  02 49 38.140860 -16 13 33.72841
 2018-Dec-31 16:24 Nm  02 49 38.180719 -16 13 32.55842
 2018-Dec-31 16:25 Nm  02 49 38.220584 -16 13 31.38849
 2018-Dec-31 16:26 Nm  02 49 38.260456 -16 13 30.21859
 2018-Dec-31 16:27 Nm  02 49 38.300334 -16 13 29.04874
 2018-Dec-31 16:28 Nm  02 49 38.340219 -16 13 27.87893
 2018-Dec-31 16:29 Nm  02 49 38.380110 -16 13 26.70917
 2018-Dec-31 16:30 Nm  02 49 38.420007 -16 13 25.53946
 2018-Dec-31 16:31 Nm  02 49 38.459910 -16 13 24.36978
 2018-Dec-31 16:32 Nm  02 49 38.499820 -16 13 23.20016
 2018-Dec-31 16:33 Cm  02 49 38.539736 -16 13 22.03057
 2018-Dec-31 16:34 Cm  02 49 38.579658 -16 13 20.86104
 2018-Dec-31 16:35 Cm  02 49 38.619586 -16 13 19.69154
 2018-Dec-31 16:36 Cm  02 49 38.659520 -16 13 18.52210
 2018-Dec-31 16:37 Cm  02 49 38.699460 -16 13 17.35269
 2018-Dec-31 16:38 Cm  02 49 38.739406 -16 13 16.18334
 2018-Dec-31 16:39 Cm  02 49 38.779358 -16 13 15.01403
 2018-Dec-31 16:40 Cm  02 49 38.819316 -16 13 13.84476
 2018-Dec-31 16:41 Cm  02 49 38.859280 -16 13 12.67554
 2018-Dec-31 16:42 Cm  02 49 38.899250 -16 13 11.50637
 2018-Dec-31 16:43 Cm  02 49 38.939225 -16 13 10.33724
 2018-Dec-31 16:44 Cm  02 49 38.979206 -16 13 09.16816
 2018-Dec-31 16:45 Cm  02 49 39.019193 -16 13 07.99912
 2018-Dec-31 16:46 Cm  02 49 39.059185 -16 13 06.83013
